{"type": "FeatureCollection", "features": [ {"type": "Feature", "properties": {"norad_id": 34979, "name": "COSMOS 2251 DEB", "group": "cosmos-2251-debris", "lat": 12.104986268927863, "lon": 64.23427472064509, "alt_km": 663.3666142497668, "timestamp": "2025-12-22T15:43:49.405301+00:00", "meta": {"OBJECT_NAME": "COSMOS 2251 DEB", "OBJECT_ID": "1993-036AFJ", "EPOCH": "2025-12-22T01:59:29.743296", "MEAN_MOTION": 14.79503726, "ECCENTRICITY": 0.00491913, "INCLINATION": 74.0392, "RA_OF_ASC_NODE": 248.8794, "ARG_OF_PERICENTER": 324.8745, "MEAN_ANOMALY": 34.919, "EPHEMERIS_TYPE": 0, "CLASSIFICATION_TYPE": "U", "NORAD_CAT_ID": 34979, "ELEMENT_SET_NO": 999, "REV_AT_EPOCH": 88358, "BSTAR": 0.0010573687, "MEAN_MOTION_DOT": 8.043e-05, "MEAN_MOTION_DDOT": 0}, "tle": {"line1": "1 34979U 93036AFJ 25356.08298314  .00008043  00000+0  10574-2 0  9992", "line2": "2 34979  74.0392 248.8794 0049191 324.8745  34.9190 14.79503726883580"}}, "geometry": {"type": "Point", "coordinates": [64.23427472064509, 12.104986268927863]}}, {"type": "Feature", "properties": {"norad_id": 34990, "name": "COSMOS 2251 DEB", "group": "cosmos-2251-debris", "lat": 28.967968836757468, "lon": -117.92925176458476, "alt_km": 750.1809002561322, "timestamp": "2025-12-22T15:43:49.405313+00:00", "meta": {"OBJECT_NAME": "COSMOS 2251 DEB", "OBJECT_ID": "1993-036AFN", "EPOCH": "2025-12-15T10:28:28.781472", "MEAN_MOTION": 14.42382837, "ECCENTRICITY": 0.00165597, "INCLINATION": 74.0457, "RA_OF_ASC_NODE": 246.3361, "ARG_OF_PERICENTER": 308.9911, "MEAN_ANOMALY": 50.977, "EPHEMERIS_TYPE": 0, "CLASSIFICATION_TYPE": "U", "NORAD_CAT_ID": 34990, "ELEMENT_SET_NO": 999, "REV_AT_EPOCH": 87385, "BSTAR": 0.00031884459, "MEAN_MOTION_DOT": 1.029e-05, "MEAN_MOTION_DDOT": 0}, "tle": {"line1": "1 34990U 93036AFN 25349.43644423  .00001029  00000+0  31884-3 0  9997", "line2": "2 34990  74.0457 246.3361 0016559 308.9911  50.9770 14.42382837873857"}}, "geometry": {"type": "Point", "coordinates": [-117.92925176458476, 28.967968836757468]}}, {"type": "Feature", "properties": {"norad_id": 34997, "name": "COSMOS 2251 DEB", "group": "cosmos-2251-debris", "lat": -45.70709838014242, "lon": -84.71599326242053, "alt_km": 697.7597887870425, "timestamp": "2025-12-22T15:43:49.405324+00:00", "meta": {"OBJECT_NAME": "COSMOS 2251 DEB", "OBJECT_ID": "1993-036AFV", "EPOCH": "2025-12-22T02:39:53.440416", "MEAN_MOTION": 14.45657457, "ECCENTRICITY": 0.0097328, "INCLINATION": 73.8808, "RA_OF_ASC_NODE": 293.5509, "ARG_OF_PERICENTER": 267.0492, "MEAN_ANOMALY": 91.9523, "EPHEMERIS_TYPE": 0, "CLASSIFICATION_TYPE": "U", "NORAD_CAT_ID": 34997, "ELEMENT_SET_NO": 999, "REV_AT_EPOCH": 70882, "BSTAR": 0.0015391452, "MEAN_MOTION_DOT": 5.746e-05, "MEAN_MOTION_DDOT": 0}, "tle": {"line1": "1 34997U 93036AFV 25356.11103519  .00005746  00000+0  15391-2 0  9997", "line2": "2 34997  73.8808 293.5509 0097328 267.0492  91.9523 14.45657457708822"}}, "geometry": {"type": "Point", "coordinates": [-84.71599326242053, -45.70709838014242]}}, {"type": "Feature", "properties": {"norad_id": 34998, "name": "COSMOS 2251 DEB", "group": "cosmos-2251-debris", "lat": -36.67837323804077, "lon": 129.02581651917507, "alt_km": 721.5469289826815, "timestamp": "2025-12-22T15:43:49.405335+00:00", "meta": {"OBJECT_NAME": "COSMOS 2251 DEB", "OBJECT_ID": "1993-036AFW", "EPOCH": "2025-12-22T03:28:26.266080", "MEAN_MOTION": 14.49318679, "ECCENTRICITY": 0.00214468, "INCLINATION": 74.0103, "RA_OF_ASC_NODE": 142.3159, "ARG_OF_PERICENTER": 286.5677, "MEAN_ANOMALY": 251.5263, "EPHEMERIS_TYPE": 0, "CLASSIFICATION_TYPE": "U", "NORAD_CAT_ID": 34998, "ELEMENT_SET_NO": 999, "REV_AT_EPOCH": 87556, "BSTAR": 0.00058847392, "MEAN_MOTION_DOT": 2.226e-05, "MEAN_MOTION_DDOT": 0}, "tle": {"line1": "1 34998U 93036AFW 25356.14474845  .00002226  00000+0  58847-3 0  9998", "line2": "2 34998  74.0103 142.3159 0021446 286.5677 251.5263 14.49318679875560"}}, "geometry": {"type": "Point", "coordinates": [129.02581651917507, -36.67837323804077]}}, {"type": "Feature", "properties": {"norad_id": 35012, "name": "COSMOS 2251 DEB", "group": "cosmos-2251-debris", "lat": 18.62583518677963, "lon": -92.30999446653405, "alt_km": 720.650318453585, "timestamp": "2025-12-22T15:43:49.405345+00:00", "meta": {"OBJECT_NAME": "COSMOS 2251 DEB", "OBJECT_ID": "1993-036AFZ", "EPOCH": "2025-12-21T00:46:53.304096", "MEAN_MOTION": 14.45558565, "ECCENTRICITY": 0.00816484, "INCLINATION": 74.0209, "RA_OF_ASC_NODE": 96.2596, "ARG_OF_PERICENTER": 234.7993, "MEAN_ANOMALY": 124.5502, "EPHEMERIS_TYPE": 0, "CLASSIFICATION_TYPE": "U", "NORAD_CAT_ID": 35012, "ELEMENT_SET_NO": 999, "REV_AT_EPOCH": 87681, "BSTAR": 0.00012761293, "MEAN_MOTION_DOT": 4.4e-06, "MEAN_MOTION_DDOT": 0}, "tle": {"line1": "1 35012U 93036AFZ 25355.03256139  .00000440  00000+0  12761-3 0  9998", "line2": "2 35012  74.0209  96.2596 0081648 234.7993 124.5502 14.45558565876813"}}, "geometry": {"type": "Point", "coordinates": [-92.30999446653405, 18.62583518677963]}}, {"type": "Feature", "properties": {"norad_id": 35014, "name": "COSMOS 2251 DEB", "group": "cosmos-2251-debris", "lat": -63.166978026058054, "lon": -121.33023316073995, "alt_km": 647.5174044268706, "timestamp": "2025-12-22T15:43:49.405355+00:00", "meta": {"OBJECT_NAME": "COSMOS 2251 DEB", "OBJECT_ID": "1993-036AGB", "EPOCH": "2025-12-17T09:17:45.359520", "MEAN_MOTION": 14.75277506, "ECCENTRICITY": 0.00070196, "INCLINATION": 73.9998, "RA_OF_ASC_NODE": 34.4305, "ARG_OF_PERICENTER": 212.3979, "MEAN_ANOMALY": 147.6764, "EPHEMERIS_TYPE": 0, "CLASSIFICATION_TYPE": "U", "NORAD_CAT_ID": 35014, "ELEMENT_SET_NO": 999, "REV_AT_EPOCH": 71405, "BSTAR": 0.0010947042, "MEAN_MOTION_DOT": 7.39e-05, "MEAN_MOTION_DDOT": 0}, "tle": {"line1": "1 35014U 93036AGB 25351.38733055  .00007390  00000+0  10947-2 0  9995", "line2": "2 35014  73.9998  34.4305 0007019 212.3979 147.6764 14.75277506714055"}}, "geometry": {"type": "Point", "coordinates": [-121.33023316073995, -63.166978026058054]}}, {"type": "Feature", "properties": {"norad_id": 35015, "name": "COSMOS 2251 DEB", "group": "cosmos-2251-debris", "lat": -15.009260512419592, "lon": -148.32921080343743, "alt_km": 746.9027391878271, "timestamp": "2025-12-22T15:43:49.405366+00:00", "meta": {"OBJECT_NAME": "COSMOS 2251 DEB", "OBJECT_ID": "1993-036AGC", "EPOCH": "2025-12-21T09:05:04.900416", "MEAN_MOTION": 14.46918455, "ECCENTRICITY": 0.00743638, "INCLINATION": 73.9465, "RA_OF_ASC_NODE": 218.4969, "ARG_OF_PERICENTER": 85.0123, "MEAN_ANOMALY": 91.7115, "EPHEMERIS_TYPE": 0, "CLASSIFICATION_TYPE": "U", "NORAD_CAT_ID": 35015, "ELEMENT_SET_NO": 999, "REV_AT_EPOCH": 65565, "BSTAR": 0.0005445635, "MEAN_MOTION_DOT": 2.019e-05, "MEAN_MOTION_DDOT": 0}, "tle": {"line1": "1 35015U 93036AGC 25355.37852894  .00002019  00000+0  54456-3 0  9999", "line2": "2 35015  73.9465 218.4969 0074363  85.0123  91.7115 14.46918455655659"}}, "geometry": {"type": "Point", "coordinates": [-148.32921080343743, -15.009260512419592]}}, {"type": "Feature", "properties": {"norad_id": 35016, "name": "COSMOS 2251 DEB", "group": "cosmos-2251-debris", "lat": -50.64869543744748, "lon": -104.45544193597537, "alt_km": 815.7259626778477, "timestamp": "2025-12-22T15:43:49.405376+00:00", "meta": {"OBJECT_NAME": "COSMOS 2251 DEB", "OBJECT_ID": "1993-036AGD", "EPOCH": "2025-12-21T01:36:06.995232", "MEAN_MOTION": 14.35074677, "ECCENTRICITY": 0.01140843, "INCLINATION": 73.9302, "RA_OF_ASC_NODE": 279.056, "ARG_OF_PERICENTER": 194.2679, "MEAN_ANOMALY": 186.7266, "EPHEMERIS_TYPE": 0, "CLASSIFICATION_TYPE": "U", "NORAD_CAT_ID": 35016, "ELEMENT_SET_NO": 999, "REV_AT_EPOCH": 86902, "BSTAR": 0.00020302186, "MEAN_MOTION_DOT": 5.95e-06, "MEAN_MOTION_DDOT": 0}, "tle": {"line1": "1 35016U 93036AGD 25355.06674763  .00000595  00000+0  20302-3 0  9993", "line2": "2 35016  73.9302 279.0560 0114084 194.2679 186.7266 14.35074677869021"}}, "geometry": {"type": "Point", "coordinates": [-104.45544193597537, -50.64869543744748]}}, {"type": "Feature", "properties": {"norad_id": 35018, "name": "COSMOS 2251 DEB", "group": "cosmos-2251-debris", "lat": 34.12643714973743, "lon": -97.57919301236163, "alt_km": 1211.2910347109955, "timestamp": "2025-12-22T15:43:49.405386+00:00", "meta": {"OBJECT_NAME": "COSMOS 2251 DEB", "OBJECT_ID": "1993-036AGF", "EPOCH": "2025-12-21T14:27:14.171040", "MEAN_MOTION": 13.67131243, "ECCENTRICITY": 0.0348897, "INCLINATION": 73.9753, "RA_OF_ASC_NODE": 95.386, "ARG_OF_PERICENTER": 2.6305, "MEAN_ANOMALY": 357.6538, "EPHEMERIS_TYPE": 0, "CLASSIFICATION_TYPE": "U", "NORAD_CAT_ID": 35018, "ELEMENT_SET_NO": 999, "REV_AT_EPOCH": 83307, "BSTAR": 0.00070084, "MEAN_MOTION_DOT": 8.72e-06, "MEAN_MOTION_DDOT": 0}, "tle": {"line1": "1 35018U 93036AGF 25355.60224735  .00000872  00000+0  70084-3 0  9995", "line2": "2 35018  73.9753  95.3860 0348897   2.6305 357.6538 13.67131243833078"}}, "geometry": {"type": "Point", "coordinates": [-97.57919301236163, 34.12643714973743]}}, {"type": "Feature", "properties": {"norad_id": 35020, "name": "COSMOS 2251 DEB", "group": "cosmos-2251-debris", "lat": -47.09813038467754, "lon": 162.02214330223455, "alt_km": 629.4048722220386, "timestamp": "2025-12-22T15:43:49.405396+00:00", "meta": {"OBJECT_NAME": "COSMOS 2251 DEB", "OBJECT_ID": "1993-036AGH", "EPOCH": "2025-12-21T21:53:57.089184", "MEAN_MOTION": 14.6281821, "ECCENTRICITY": 0.00912921, "INCLINATION": 74.0451, "RA_OF_ASC_NODE": 181.3743, "ARG_OF_PERICENTER": 293.3568, "MEAN_ANOMALY": 65.8014, "EPHEMERIS_TYPE": 0, "CLASSIFICATION_TYPE": "U", "NORAD_CAT_ID": 35020, "ELEMENT_SET_NO": 999, "REV_AT_EPOCH": 88372, "BSTAR": 0.00012286982, "MEAN_MOTION_DOT": 6.31e-06, "MEAN_MOTION_DDOT": 0}, "tle": {"line1": "1 35020U 93036AGH 25355.91246631  .00000631  00000+0  12287-3 0  9995", "line2": "2 35020  74.0451 181.3743 0091292 293.3568  65.8014 14.62818210883724"}}, "geometry": {"type": "Point", "coordinates": [162.02214330223455, -47.09813038467754]}}]}